start=new Date('2023-05-01T00:00:00.000Z').valueOf();
sats=[{"CENTER_NAME":"EARTH","TIME_SYSTEM":"UTC","NORAD_CAT_ID":"53223","TLE_LINE1":"1 53223U 22084AL  23120.75312334  .00001187  00000-0  97021-4 0  9997","LAUNCH_DATE":"2022-07-22","CLASSIFICATION_TYPE":"U","APOAPSIS":"563.678","MEAN_MOTION_DDOT":"0.0000000000000","OBJECT_ID":"2022-084AL","OBJECT_TYPE":"PAYLOAD","GP_ID":"230983945","REF_FRAME":"TEME","MEAN_ELEMENT_THEORY":"SGP4","DECAY_DATE":null,"MEAN_MOTION_DOT":"0.00001187","MEAN_MOTION":"15.01254878","TLE_LINE2":"2 53223  97.6547 182.4997 0000937 146.2956 213.8328 15.01254878 42696","REV_AT_EPOCH":"4269","FILE":"3897615","RA_OF_ASC_NODE":"182.4997","PERIAPSIS":"562.377","SITE":"AFWTR","OBJECT_NAME":"STARLINK-4354","ARG_OF_PERICENTER":"146.2956","MEAN_ANOMALY":"213.8328","INCLINATION":"97.6547","PERIOD":"95.920","RCS_SIZE":"LARGE","BSTAR":"0.00009702100000","SEMIMAJOR_AXIS":"6941.163","ELEMENT_SET_NO":"999","EPOCH":"2023-04-30T18:04:29.856576","ECCENTRICITY":"0.00009370","EPHEMERIS_TYPE":"0","COUNTRY_CODE":"US"},{"REV_AT_EPOCH":"4270","TLE_LINE2":"2 53224  97.6541 182.5066 0001753 108.6334 251.5081 15.01270060 42706","MEAN_MOTION":"15.01270060","RA_OF_ASC_NODE":"182.5066","FILE":"3897623","MEAN_ELEMENT_THEORY":"SGP4","MEAN_MOTION_DOT":"0.00004405","DECAY_DATE":null,"REF_FRAME":"TEME","OBJECT_ID":"2022-084AM","MEAN_MOTION_DDOT":"0.0000000000000","APOAPSIS":"564.198","GP_ID":"230984268","OBJECT_TYPE":"PAYLOAD","NORAD_CAT_ID":"53224","TLE_LINE1":"1 53224U 22084AM  23120.75867329  .00004405  00000-0  34726-3 0  9995","LAUNCH_DATE":"2022-07-22","CLASSIFICATION_TYPE":"U","CENTER_NAME":"EARTH","TIME_SYSTEM":"UTC","EPHEMERIS_TYPE":"0","COUNTRY_CODE":"US","SEMIMAJOR_AXIS":"6941.116","ECCENTRICITY":"0.00017530","ELEMENT_SET_NO":"999","EPOCH":"2023-04-30T18:12:29.372256","BSTAR":"0.00034726000000","INCLINATION":"97.6541","PERIOD":"95.919","MEAN_ANOMALY":"251.5081","RCS_SIZE":"LARGE","ARG_OF_PERICENTER":"108.6334","OBJECT_NAME":"STARLINK-4356","SITE":"AFWTR","PERIAPSIS":"561.764"},{"REF_FRAME":"TEME","DECAY_DATE":null,"MEAN_MOTION_DOT":"0.00002408","MEAN_ELEMENT_THEORY":"SGP4","FILE":"3897622","RA_OF_ASC_NODE":"182.4958","MEAN_MOTION":"15.01255943","TLE_LINE2":"2 53225  97.6545 182.4958 0001591 259.9562 100.1483 15.01255943 42699","REV_AT_EPOCH":"4269","CENTER_NAME":"EARTH","TIME_SYSTEM":"UTC","LAUNCH_DATE":"2022-07-22","TLE_LINE1":"1 53225U 22084AN  23120.74941701  .00002408  00000-0  19200-3 0  9993","CLASSIFICATION_TYPE":"U","NORAD_CAT_ID":"53225","OBJECT_TYPE":"PAYLOAD","GP_ID":"230983984","MEAN_MOTION_DDOT":"0.0000000000000","APOAPSIS":"564.129","OBJECT_ID":"2022-084AN","BSTAR":"0.00019200000000","EPOCH":"2023-04-30T17:59:09.629664","ELEMENT_SET_NO":"999","ECCENTRICITY":"0.00015910","SEMIMAJOR_AXIS":"6941.159","COUNTRY_CODE":"US","EPHEMERIS_TYPE":"0","PERIAPSIS":"561.920","SITE":"AFWTR","OBJECT_NAME":"STARLINK-4358","ARG_OF_PERICENTER":"259.9562","RCS_SIZE":"LARGE","MEAN_ANOMALY":"100.1483","PERIOD":"95.920","INCLINATION":"97.6545"},{"TIME_SYSTEM":"UTC","CENTER_NAME":"EARTH","OBJECT_TYPE":"PAYLOAD","GP_ID":"230977116","MEAN_MOTION_DDOT":"0.0000000000000","APOAPSIS":"563.565","OBJECT_ID":"2022-084AP","TLE_LINE1":"1 53226U 22084AP  23120.15349030 -.00003474  00000-0 -26602-3 0  9996","CLASSIFICATION_TYPE":"U","LAUNCH_DATE":"2022-07-22","NORAD_CAT_ID":"53226","REF_FRAME":"TEME","FILE":"3897442","RA_OF_ASC_NODE":"181.9090","MEAN_MOTION":"15.01263090","TLE_LINE2":"2 53226  97.6548 181.9090 0000810 124.9520 235.1780 15.01263090 42604","REV_AT_EPOCH":"4260","DECAY_DATE":null,"MEAN_MOTION_DOT":"-0.00003474","MEAN_ELEMENT_THEORY":"SGP4","SITE":"AFWTR","PERIAPSIS":"562.440","RCS_SIZE":"LARGE","MEAN_ANOMALY":"235.1780","INCLINATION":"97.6548","PERIOD":"95.919","OBJECT_NAME":"STARLINK-4359","ARG_OF_PERICENTER":"124.9520","EPOCH":"2023-04-30T03:41:01.561920","ELEMENT_SET_NO":"999","ECCENTRICITY":"0.00008100","SEMIMAJOR_AXIS":"6941.137","BSTAR":"-0.00026602000000","COUNTRY_CODE":"US","EPHEMERIS_TYPE":"0"},{"TIME_SYSTEM":"UTC","CENTER_NAME":"EARTH","OBJECT_ID":"2022-084AQ","APOAPSIS":"564.582","MEAN_MOTION_DDOT":"0.0000000000000","GP_ID":"230984135","OBJECT_TYPE":"PAYLOAD","NORAD_CAT_ID":"53227","TLE_LINE1":"1 53227U 22084AQ  23120.67930412  .00001918  00000-0  15392-3 0  9997","LAUNCH_DATE":"2022-07-22","CLASSIFICATION_TYPE":"U","REF_FRAME":"TEME","TLE_LINE2":"2 53227  97.6547 182.4265 0002243 248.0506 112.0480 15.01255636 42683","REV_AT_EPOCH":"4268","MEAN_MOTION":"15.01255636","RA_OF_ASC_NODE":"182.4265","FILE":"3897622","MEAN_ELEMENT_THEORY":"SGP4","MEAN_MOTION_DOT":"0.00001918","DECAY_DATE":null,"SITE":"AFWTR","PERIAPSIS":"561.468","PERIOD":"95.920","INCLINATION":"97.6547","MEAN_ANOMALY":"112.0480","RCS_SIZE":"LARGE","ARG_OF_PERICENTER":"248.0506","OBJECT_NAME":"STARLINK-4366","SEMIMAJOR_AXIS":"6941.160","ECCENTRICITY":"0.00022430","EPOCH":"2023-04-30T16:18:11.875968","ELEMENT_SET_NO":"999","BSTAR":"0.00015392000000","EPHEMERIS_TYPE":"0","COUNTRY_CODE":"US"},{"RA_OF_ASC_NODE":"182.4981","FILE":"3897622","REV_AT_EPOCH":"4269","TLE_LINE2":"2 53228  97.6545 182.4981 0000733 216.0069 144.1106 15.01260046 42691","MEAN_MOTION":"15.01260046","MEAN_MOTION_DOT":"0.00001062","DECAY_DATE":null,"MEAN_ELEMENT_THEORY":"SGP4","REF_FRAME":"TEME","GP_ID":"230984134","OBJECT_TYPE":"PAYLOAD","OBJECT_ID":"2022-084AR","MEAN_MOTION_DDOT":"0.0000000000000","APOAPSIS":"563.520","TLE_LINE1":"1 53228U 22084AR  23120.75126790  .00001062  00000-0  87253-4 0  9999","LAUNCH_DATE":"2022-07-22","CLASSIFICATION_TYPE":"U","NORAD_CAT_ID":"53228","CENTER_NAME":"EARTH","TIME_SYSTEM":"UTC","COUNTRY_CODE":"US","EPHEMERIS_TYPE":"0","ECCENTRICITY":"0.00007330","EPOCH":"2023-04-30T18:01:49.546560","ELEMENT_SET_NO":"999","SEMIMAJOR_AXIS":"6941.147","BSTAR":"0.00008725300000","RCS_SIZE":"LARGE","INCLINATION":"97.6545","PERIOD":"95.919","MEAN_ANOMALY":"144.1106","ARG_OF_PERICENTER":"216.0069","OBJECT_NAME":"STARLINK-4365","SITE":"AFWTR","PERIAPSIS":"562.503"},{"CENTER_NAME":"EARTH","TIME_SYSTEM":"UTC","NORAD_CAT_ID":"53229","TLE_LINE1":"1 53229U 22084AS  23120.74570885  .00001758  00000-0  14142-3 0  9995","LAUNCH_DATE":"2022-07-22","CLASSIFICATION_TYPE":"U","OBJECT_ID":"2022-084AS","MEAN_MOTION_DDOT":"0.0000000000000","APOAPSIS":"564.806","GP_ID":"230984142","OBJECT_TYPE":"PAYLOAD","REF_FRAME":"TEME","MEAN_ELEMENT_THEORY":"SGP4","MEAN_MOTION_DOT":"0.00001758","DECAY_DATE":null,"REV_AT_EPOCH":"4269","TLE_LINE2":"2 53229  97.6541 182.4915 0002595 243.9574 116.1383 15.01262399 42692","MEAN_MOTION":"15.01262399","RA_OF_ASC_NODE":"182.4915","FILE":"3897622","PERIAPSIS":"561.203","SITE":"AFWTR","ARG_OF_PERICENTER":"243.9574","OBJECT_NAME":"STARLINK-4367","INCLINATION":"97.6541","PERIOD":"95.919","MEAN_ANOMALY":"116.1383","RCS_SIZE":"LARGE","BSTAR":"0.00014142000000","SEMIMAJOR_AXIS":"6941.139","ECCENTRICITY":"0.00025950","ELEMENT_SET_NO":"999","EPOCH":"2023-04-30T17:53:49.244640","EPHEMERIS_TYPE":"0","COUNTRY_CODE":"US"},{"SITE":"AFWTR","PERIAPSIS":"561.415","RCS_SIZE":"LARGE","MEAN_ANOMALY":"111.7756","PERIOD":"95.919","INCLINATION":"97.6542","OBJECT_NAME":"STARLINK-4364","ARG_OF_PERICENTER":"248.3228","ELEMENT_SET_NO":"999","EPOCH":"2023-04-30T17:56:30.124032","ECCENTRICITY":"0.00022580","SEMIMAJOR_AXIS":"6941.117","BSTAR":"0.00039880000000","COUNTRY_CODE":"US","EPHEMERIS_TYPE":"0","TIME_SYSTEM":"UTC","CENTER_NAME":"EARTH","OBJECT_TYPE":"PAYLOAD","GP_ID":"230983988","MEAN_MOTION_DDOT":"0.0000000000000","APOAPSIS":"564.550","OBJECT_ID":"2022-084AT","TLE_LINE1":"1 53230U 22084AT  23120.74757088  .00005068  00000-0  39880-3 0  9993","LAUNCH_DATE":"2022-07-22","CLASSIFICATION_TYPE":"U","NORAD_CAT_ID":"53230","REF_FRAME":"TEME","FILE":"3897622","RA_OF_ASC_NODE":"182.4947","MEAN_MOTION":"15.01269566","TLE_LINE2":"2 53230  97.6542 182.4947 0002258 248.3228 111.7756 15.01269566 43072","REV_AT_EPOCH":"4307","DECAY_DATE":null,"MEAN_MOTION_DOT":"0.00005068","MEAN_ELEMENT_THEORY":"SGP4"},{"REF_FRAME":"TEME","MEAN_ELEMENT_THEORY":"SGP4","MEAN_MOTION_DOT":"-0.00000105","DECAY_DATE":null,"TLE_LINE2":"2 53231  97.6549 182.4210 0003132 238.4753 121.6165 15.01253478 42683","REV_AT_EPOCH":"4268","MEAN_MOTION":"15.01253478","RA_OF_ASC_NODE":"182.4210","FILE":"3897618","CENTER_NAME":"EARTH","TIME_SYSTEM":"UTC","NORAD_CAT_ID":"53231","LAUNCH_DATE":"2022-07-22","TLE_LINE1":"1 53231U 22084AU  23120.67535407 -.00000105  00000-0 -35769-5 0  9998","CLASSIFICATION_TYPE":"U","OBJECT_ID":"2022-084AU","MEAN_MOTION_DDOT":"0.0000000000000","APOAPSIS":"565.206","GP_ID":"230983992","OBJECT_TYPE":"PAYLOAD","BSTAR":"-0.00000357690000","SEMIMAJOR_AXIS":"6941.167","ECCENTRICITY":"0.00031320","EPOCH":"2023-04-30T16:12:30.591648","ELEMENT_SET_NO":"999","EPHEMERIS_TYPE":"0","COUNTRY_CODE":"US","PERIAPSIS":"560.858","SITE":"AFWTR","ARG_OF_PERICENTER":"238.4753","OBJECT_NAME":"STARLINK-4370","PERIOD":"95.920","INCLINATION":"97.6549","MEAN_ANOMALY":"121.6165","RCS_SIZE":"LARGE"},{"SITE":"AFWTR","PERIAPSIS":"560.791","MEAN_ANOMALY":"115.7397","PERIOD":"95.919","INCLINATION":"97.6546","RCS_SIZE":"LARGE","OBJECT_NAME":"STARLINK-4371","ARG_OF_PERICENTER":"244.3496","SEMIMAJOR_AXIS":"6941.150","EPOCH":"2023-04-30T17:51:09.129024","ELEMENT_SET_NO":"999","ECCENTRICITY":"0.00032040","BSTAR":"0.00002283200000","EPHEMERIS_TYPE":"0","COUNTRY_CODE":"US","TIME_SYSTEM":"UTC","CENTER_NAME":"EARTH","MEAN_MOTION_DDOT":"0.0000000000000","APOAPSIS":"565.239","OBJECT_ID":"2022-084AV","OBJECT_TYPE":"PAYLOAD","GP_ID":"230983990","NORAD_CAT_ID":"53232","CLASSIFICATION_TYPE":"U","TLE_LINE1":"1 53232U 22084AV  23120.74385566  .00000234  00000-0  22832-4 0  9993","LAUNCH_DATE":"2022-07-22","REF_FRAME":"TEME","MEAN_MOTION":"15.01259087","TLE_LINE2":"2 53232  97.6546 182.4898 0003204 244.3496 115.7397 15.01259087 42697","REV_AT_EPOCH":"4269","FILE":"3897618","RA_OF_ASC_NODE":"182.4898","MEAN_ELEMENT_THEORY":"SGP4","DECAY_DATE":null,"MEAN_MOTION_DOT":"0.00000234"}];
